{
  "type": "FeatureCollection",
  "features": [
    {
      "type": "Feature",
      "properties": {
        "norad_id": 30947,
        "name": "FENGYUN 1C DEB",
        "group": "fengyun-1c-debris",
        "lat": -41.319814015612074,
        "lon": 51.83027880092055,
        "alt_km": 705.8244492716876,
        "timestamp": "2025-12-15T22:44:29.207791+00:00",
        "meta_object_name": "FENGYUN 1C DEB",
        "meta_object_id": "1999-025BAM",
        "meta_epoch": "2025-12-15T03:20:18.351456",
        "meta_mean_motion": 14.38045842,
        "meta_eccentricity": 0.00956955,
        "meta_inclination": 98.8084,
        "meta_ra_of_asc_node": 238.8364,
        "meta_arg_of_pericenter": 240.529,
        "meta_mean_anomaly": 118.6323,
        "meta_ephemeris_type": 0,
        "meta_classification_type": "U",
        "meta_norad_cat_id": 30947,
        "meta_element_set_no": 999,
        "meta_rev_at_epoch": 98527,
        "meta_bstar": 0.00029429226,
        "meta_mean_motion_dot": 8.9e-06,
        "meta_mean_motion_ddot": 0,
        "tle_line1": "1 30947U 99025BAM 25349.13910129  .00000890  00000+0  29429-3 0  9992",
        "tle_line2": "2 30947  98.8084 238.8364 0095695 240.5290 118.6323 14.38045842985276"
      },
      "geometry": {
        "type": "Point",
        "coordinates": [
          51.83027880092055,
          -41.319814015612074
        ]
      }
    },
    {
      "type": "Feature",
      "properties": {
        "norad_id": 30949,
        "name": "FENGYUN 1C DEB",
        "group": "fengyun-1c-debris",
        "lat": -51.13117649599895,
        "lon": 153.26458179440843,
        "alt_km": 821.1186188674492,
        "timestamp": "2025-12-15T22:44:29.207801+00:00",
        "meta_object_name": "FENGYUN 1C DEB",
        "meta_object_id": "1999-025BAP",
        "meta_epoch": "2025-12-15T06:24:17.623296",
        "meta_mean_motion": 14.1405098,
        "meta_eccentricity": 0.01163048,
        "meta_inclination": 98.6979,
        "meta_ra_of_asc_node": 343.5505,
        "meta_arg_of_pericenter": 302.5735,
        "meta_mean_anomaly": 67.3877,
        "meta_ephemeris_type": 0,
        "meta_classification_type": "U",
        "meta_norad_cat_id": 30949,
        "meta_element_set_no": 999,
        "meta_rev_at_epoch": 96552,
        "meta_bstar": 0.00027378803,
        "meta_mean_motion_dot": 5.11e-06,
        "meta_mean_motion_ddot": 0,
        "tle_line1": "1 30949U 99025BAP 25349.26687064  .00000511  00000+0  27379-3 0  9999",
        "tle_line2": "2 30949  98.6979 343.5505 0116304 302.5735  67.3877 14.14050980965527"
      },
      "geometry": {
        "type": "Point",
        "coordinates": [
          153.26458179440843,
          -51.13117649599895
        ]
      }
    },
    {
      "type": "Feature",
      "properties": {
        "norad_id": 30954,
        "name": "FENGYUN 1C DEB",
        "group": "fengyun-1c-debris",
        "lat": -70.10315854676215,
        "lon": 115.05478639381245,
        "alt_km": 880.2544594387045,
        "timestamp": "2025-12-15T22:44:29.207812+00:00",
        "meta_object_name": "FENGYUN 1C DEB",
        "meta_object_id": "1999-025BAU",
        "meta_epoch": "2025-12-13T13:27:41.332320",
        "meta_mean_motion": 14.14938562,
        "meta_eccentricity": 0.01288279,
        "meta_inclination": 98.713,
        "meta_ra_of_asc_node": 87.6556,
        "meta_arg_of_pericenter": 184.9499,
        "meta_mean_anomaly": 191.2536,
        "meta_ephemeris_type": 0,
        "meta_classification_type": "U",
        "meta_norad_cat_id": 30954,
        "meta_element_set_no": 999,
        "meta_rev_at_epoch": 96399,
        "meta_bstar": 0.0016912953,
        "meta_mean_motion_dot": 3.501e-05,
        "meta_mean_motion_ddot": 0,
        "tle_line1": "1 30954U 99025BAU 25347.56089505  .00003501  00000+0  16913-2 0  9995",
        "tle_line2": "2 30954  98.7130  87.6556 0128827 184.9499 191.2536 14.14938562963996"
      },
      "geometry": {
        "type": "Point",
        "coordinates": [
          115.05478639381245,
          -70.10315854676215
        ]
      }
    },
    {
      "type": "Feature",
      "properties": {
        "norad_id": 30956,
        "name": "FENGYUN 1C DEB",
        "group": "fengyun-1c-debris",
        "lat": -80.23153777345705,
        "lon": 87.49286280265234,
        "alt_km": 834.0408188863457,
        "timestamp": "2025-12-15T22:44:29.207822+00:00",
        "meta_object_name": "FENGYUN 1C DEB",
        "meta_object_id": "1999-025BAW",
        "meta_epoch": "2025-12-15T01:09:48.979584",
        "meta_mean_motion": 14.14216456,
        "meta_eccentricity": 0.00491713,
        "meta_inclination": 98.7604,
        "meta_ra_of_asc_node": 23.0192,
        "meta_arg_of_pericenter": 336.2206,
        "meta_mean_anomaly": 43.7965,
        "meta_ephemeris_type": 0,
        "meta_classification_type": "U",
        "meta_norad_cat_id": 30956,
        "meta_element_set_no": 999,
        "meta_rev_at_epoch": 96340,
        "meta_bstar": 0.00086511518,
        "meta_mean_motion_dot": 1.626e-05,
        "meta_mean_motion_ddot": 0,
        "tle_line1": "1 30956U 99025BAW 25349.04848356  .00001626  00000+0  86512-3 0  9998",
        "tle_line2": "2 30956  98.7604  23.0192 0049171 336.2206  43.7965 14.14216456963400"
      },
      "geometry": {
        "type": "Point",
        "coordinates": [
          87.49286280265234,
          -80.23153777345705
        ]
      }
    },
    {
      "type": "Feature",
      "properties": {
        "norad_id": 30960,
        "name": "FENGYUN 1C DEB",
        "group": "fengyun-1c-debris",
        "lat": -10.893695118017867,
        "lon": 107.99015030757822,
        "alt_km": 807.170864807279,
        "timestamp": "2025-12-15T22:44:29.207833+00:00",
        "meta_object_name": "FENGYUN 1C DEB",
        "meta_object_id": "1999-025BBA",
        "meta_epoch": "2025-12-15T01:30:42.314400",
        "meta_mean_motion": 14.66929525,
        "meta_eccentricity": 0.0196301,
        "meta_inclination": 99.0001,
        "meta_ra_of_asc_node": 105.2714,
        "meta_arg_of_pericenter": 154.7397,
        "meta_mean_anomaly": 206.3563,
        "meta_ephemeris_type": 0,
        "meta_classification_type": "U",
        "meta_norad_cat_id": 30960,
        "meta_element_set_no": 999,
        "meta_rev_at_epoch": 98732,
        "meta_bstar": 0.00090047448,
        "meta_mean_motion_dot": 6.667e-05,
        "meta_mean_motion_ddot": 0,
        "tle_line1": "1 30960U 99025BBA 25349.06298975  .00006667  00000+0  90047-3 0  9999",
        "tle_line2": "2 30960  99.0001 105.2714 0196301 154.7397 206.3563 14.66929525987328"
      },
      "geometry": {
        "type": "Point",
        "coordinates": [
          107.99015030757822,
          -10.893695118017867
        ]
      }
    },
    {
      "type": "Feature",
      "properties": {
        "norad_id": 30967,
        "name": "FENGYUN 1C DEB",
        "group": "fengyun-1c-debris",
        "lat": 73.52794635006609,
        "lon": 147.7768858990538,
        "alt_km": 734.0334085851191,
        "timestamp": "2025-12-15T22:44:29.207843+00:00",
        "meta_object_name": "FENGYUN 1C DEB",
        "meta_object_id": "1999-025BBH",
        "meta_epoch": "2025-12-15T07:25:34.027968",
        "meta_mean_motion": 14.57161956,
        "meta_eccentricity": 0.00946657,
        "meta_inclination": 98.7631,
        "meta_ra_of_asc_node": 295.6611,
        "meta_arg_of_pericenter": 231.683,
        "meta_mean_anomaly": 127.5828,
        "meta_ephemeris_type": 0,
        "meta_classification_type": "U",
        "meta_norad_cat_id": 30967,
        "meta_element_set_no": 999,
        "meta_rev_at_epoch": 99051,
        "meta_bstar": 0.00054370767,
        "meta_mean_motion_dot": 2.551e-05,
        "meta_mean_motion_ddot": 0,
        "tle_line1": "1 30967U 99025BBH 25349.30942162  .00002551  00000+0  54371-3 0  9995",
        "tle_line2": "2 30967  98.7631 295.6611 0094665 231.6830 127.5828 14.57161956990516"
      },
      "geometry": {
        "type": "Point",
        "coordinates": [
          147.7768858990538,
          73.52794635006609
        ]
      }
    },
    {
      "type": "Feature",
      "properties": {
        "norad_id": 30971,
        "name": "FENGYUN 1C DEB",
        "group": "fengyun-1c-debris",
        "lat": 62.84246455881899,
        "lon": -127.3421258063921,
        "alt_km": 600.3269660511578,
        "timestamp": "2025-12-15T22:44:29.207854+00:00",
        "meta_object_name": "FENGYUN 1C DEB",
        "meta_object_id": "1999-025BBM",
        "meta_epoch": "2025-12-15T09:15:59.018400",
        "meta_mean_motion": 14.71729704,
        "meta_eccentricity": 0.01638494,
        "meta_inclination": 99.2103,
        "meta_ra_of_asc_node": 33.5837,
        "meta_arg_of_pericenter": 183.0093,
        "meta_mean_anomaly": 201.2874,
        "meta_ephemeris_type": 0,
        "meta_classification_type": "U",
        "meta_norad_cat_id": 30971,
        "meta_element_set_no": 999,
        "meta_rev_at_epoch": 99756,
        "meta_bstar": 0.00037663068,
        "meta_mean_motion_dot": 2.827e-05,
        "meta_mean_motion_ddot": 0,
        "tle_line1": "1 30971U 99025BBM 25349.38609975  .00002827  00000+0  37663-3 0  9991",
        "tle_line2": "2 30971  99.2103  33.5837 0163849 183.0093 201.2874 14.71729704997562"
      },
      "geometry": {
        "type": "Point",
        "coordinates": [
          -127.3421258063921,
          62.84246455881899
        ]
      }
    }
  ]
}